NORAD_CAT_ID,OBJECT_NAME,OBJECT_TYPE,EPOCH,MEAN_MOTION,ECCENTRICITY,INCLINATION,RA_OF_ASC_NODE,ARG_OF_PERICENTER,MEAN_ANOMALY,BSTAR,MEAN_MOTION_DOT,MEAN_MOTION_DDOT,TLE_LINE0,TLE_LINE1,TLE_LINE2,SEMIMAJOR_AXIS,PERIOD,APOGEE,PERIGEE,DECAYED
52602.0,STARLINK-4012,PAYLOAD,2022-08-23 14:00:01,15.088242,0.0001638,53.2164,328.5891,46.9445,238.2867,0.00046128,7.058e-05,0.0,0 STARLINK-4012,1 52602U 22052E   22235.58334491  .00007058  00000-0  46128-3 0  9991,2 52602  53.2164 328.5891 0001638  46.9445 238.2867 15.08824200  1304,6917.929,95.439,540.927,538.661,0.0
52602.0,STARLINK-4012,PAYLOAD,2022-08-23 22:00:01,15.08851807,0.0001557,53.2165,327.0919,46.09,250.7796,-0.0022037,-0.000352,0.0,0 STARLINK-4012,1 52602U 22052E   22235.91668981 -.00035200  00000-0 -22037-2 0  9996,2 52602  53.2165 327.0919 0001557  46.0900 250.7796 15.08851807 15912,6917.844,95.437,540.786,538.632,0.0
52602.0,STARLINK-4012,PAYLOAD,2022-08-24 14:00:01,15.08835462,0.0001696999999999,53.2169,324.1002,46.2427,273.7585,0.00067604,0.00010486,0.0,0 STARLINK-4012,1 52602U 22052E   22236.58334491  .00010486  00000-0  67604-3 0  9993,2 52602  53.2169 324.1002 0001697  46.2427 273.7585 15.08835462  1306,6917.894,95.438,540.933,538.585,0.0
52602.0,STARLINK-4012,PAYLOAD,2022-08-24 16:00:00,15.08822191,0.0001686,53.2169,323.7263,44.8929,8.0111,0.0027179,0.00043212,0.0,0 STARLINK-4012,1 52602U 22052E   22236.66667824  .00043212  00000-0  27179-2 0  9996,2 52602  53.2169 323.7263 0001686  44.8929   8.0111 15.08822191 16023,6917.935,95.439,540.966,538.633,0.0
52602.0,STARLINK-4012,PAYLOAD,2022-08-24 22:00:00,15.08862956,0.0001599,53.2168,322.6029,46.2509,285.3414,-0.0021666,-0.00034626,0.0,0 STARLINK-4012,1 52602U 22052E   22236.91667824 -.00034626  00000-0 -21666-2 0  9990,2 52602  53.2168 322.6029 0001599  46.2509 285.3414 15.08862956  1307,6917.81,95.436,540.781,538.569,0.0
52602.0,STARLINK-4012,PAYLOAD,2022-08-25 06:00:02,15.088506400000002,0.0001529,53.2172,321.1058,52.5378,290.7261,0.0011527999999999,0.00018112,0.0,0 STARLINK-4012,1 52602U 22052E   22237.25002315  .00018112  00000-0  11528-2 0  9992,2 52602  53.2172 321.1058 0001529  52.5378 290.7261 15.08850640 16117,6917.848000000001,95.437,540.771,538.655,0.0
52602.0,STARLINK-4012,PAYLOAD,2022-08-25 14:00:01,15.0882464,0.00018,53.2171,319.6113,48.2092,306.6061,0.0002943,4.397e-05,0.0,0 STARLINK-4012,1 52602U 22052E   22237.58334491  .00004397  00000-0  29430-3 0  9993,2 52602  53.2171 319.6113 0001800  48.2092 306.6061 15.08824640 16168,6917.927,95.439,541.038,538.547,0.0
52602.0,STARLINK-4012,PAYLOAD,2022-08-25 22:00:00,15.08845059,0.0001683,53.2168,318.1139,49.6445,316.7481,-0.0018863,-0.00030187,0.0,0 STARLINK-4012,1 52602U 22052E   22237.91667824 -.00030187  00000-0 -18863-2 0  9994,2 52602  53.2168 318.1139 0001683  49.6445 316.7481 15.08845059  1307,6917.865,95.437,540.894,538.566,0.0
52602.0,STARLINK-4012,PAYLOAD,2022-08-26 14:00:01,15.08824862,0.0001789,53.2168,315.1226,48.5246,341.1075,0.0011584,0.00018188,0.0,0 STARLINK-4012,1 52602U 22052E   22238.58335648  .00018188  00000-0  11584-2 0  9992,2 52602  53.2168 315.1226 0001789  48.5246 341.1075 15.08824862 16312,6917.927,95.439,541.029,538.554,0.0
52602.0,STARLINK-4012,PAYLOAD,2022-08-26 22:00:00,15.08849851,0.0001662,53.2165,313.625,50.8047,350.35,-0.0014843,-0.00023839,0.0,0 STARLINK-4012,1 52602U 22052E   22238.91667824 -.00023839  00000-0 -14843-2 0  9995,2 52602  53.2165 313.6250 0001662  50.8047 350.3500 15.08849851  1307,6917.85,95.437,540.865,538.566,0.0
52602.0,STARLINK-4012,PAYLOAD,2022-08-27 14:00:01,15.08831845,0.0001771999999999,53.2161,310.6338,48.7865,15.5711,0.0015928,0.00025147,0.0,0 STARLINK-4012,1 52602U 22052E   22239.58334491  .00025147  00000-0  15928-2 0  9997,2 52602  53.2161 310.6338 0001772  48.7865  15.5711 15.08831845  1301,6917.905,95.438,540.996,538.544,0.0
52602.0,STARLINK-4012,PAYLOAD,2022-08-27 22:00:00,15.08855764,0.0001645,53.2157,309.136,51.6534,24.3027,-0.0010023,-0.00016211,0.0,0 STARLINK-4012,1 52602U 22052E   22239.91667824 -.00016211  00000-0 -10023-2 0  9998,2 52602  53.2157 309.1360 0001645  51.6534  24.3027 15.08855764  1303,6917.831999999999,95.437,540.835,538.559,0.0
52602.0,STARLINK-4012,PAYLOAD,2022-08-28 14:00:01,15.08814586,0.0001695,53.2153,306.1447,45.9304,53.2581,0.0022199,0.00035194,0.0,0 STARLINK-4012,1 52602U 22052E   22240.58334491  .00035194  00000-0  22199-2 0  9990,2 52602  53.2153 306.1447 0001695  45.9304  53.2581 15.08814586  1301,6917.958000000001,95.439,540.996,538.65,0.0
52602.0,STARLINK-4012,PAYLOAD,2022-08-28 22:00:00,15.08837783,0.000157,53.215,304.6467,49.3066,61.4621,-0.00050488,-8.314e-05,0.0,0 STARLINK-4012,1 52602U 22052E   22240.91667824 -.00008314  00000-0 -50488-3 0  9995,2 52602  53.2150 304.6467 0001570  49.3066  61.4621 15.08837783  1308,6917.887,95.438,540.8380000000002,538.6659999999998,0.0
52602.0,STARLINK-4012,PAYLOAD,2022-08-29 06:00:02,15.08851392,0.0001595,53.2149,303.1502,52.5483,69.8679,-0.0007385,-0.00012026,0.0,0 STARLINK-4012,1 52602U 22052E   22241.25002315 -.00012026  00000-0 -73850-3 0  9994,2 52602  53.2149 303.1502 0001595  52.5483  69.8679 15.08851392 16714,6917.846,95.437,540.814,538.607,0.0
52602.0,STARLINK-4012,PAYLOAD,2022-08-29 14:00:01,15.08824881,0.0001774999999999,53.2148,301.6554,45.6723,88.2886,0.001991,0.00031528,0.0,0 STARLINK-4012,1 52602U 22052E   22241.58334491  .00031528  00000-0  19910-2 0  9995,2 52602  53.2148 301.6554 0001775  45.6723  88.2886 15.08824881  1300,6917.927,95.439,541.02,538.564,0.0
52602.0,STARLINK-4012,PAYLOAD,2022-08-29 22:00:00,15.088366199999998,0.0001688,53.2147,300.1572,50.2235,95.3346,-0.0018018,-0.00028847,0.0,0 STARLINK-4012,1 52602U 22052E   22241.91667824 -.00028847  00000-0 -18018-2 0  9991,2 52602  53.2147 300.1572 0001688  50.2235  95.3346 15.08836620  1300,6917.891,95.438,540.923,538.5880000000002,0.0
52602.0,STARLINK-4012,PAYLOAD,2022-08-30 14:00:01,15.08804061,0.0001929,53.2146,297.1658,46.9626,121.7621,0.0030151999999999,0.00047979,0.0,0 STARLINK-4012,1 52602U 22052E   22242.58334491  .00047979  00000-0  30152-2 0  9994,2 52602  53.2146 297.1658 0001929  46.9626 121.7621 15.08804061  1307,6917.99,95.44,541.19,538.521,0.0
52602.0,STARLINK-4012,PAYLOAD,2022-08-30 22:00:00,15.08828437,0.0001788,53.2147,295.6675,50.3933,129.9114,0.0004442,6.786e-05,0.0,0 STARLINK-4012,1 52602U 22052E   22242.91667824  .00006786  00000-0  44420-3 0  9995,2 52602  53.2147 295.6675 0001788  50.3933 129.9114 15.08828437  1303,6917.916,95.438,541.018,538.544,0.0
52602.0,STARLINK-4012,PAYLOAD,2022-08-31 14:00:01,15.08820665,0.0002004,53.2149,292.6761,46.2997,157.1932,0.002769,0.00044033,0.0,0 STARLINK-4012,1 52602U 22052E   22243.58334491  .00044033  00000-0  27690-2 0  9996,2 52602  53.2149 292.6761 0002004  46.2997 157.1932 15.08820665  1300,6917.939,95.439,541.191,538.418,0.0
52602.0,STARLINK-4012,PAYLOAD,2022-08-31 22:00:00,15.08833525,0.0001799,53.2151,291.1778,49.0487,166.0458,-0.0009568999999999,-0.00015482,0.0,0 STARLINK-4012,1 52602U 22052E   22243.91667824 -.00015482  00000-0 -95690-3 0  9996,2 52602  53.2151 291.1778 0001799  49.0487 166.0458 15.08833525  1301,6917.9,95.438,541.01,538.521,0.0
52602.0,STARLINK-4012,PAYLOAD,2022-09-01 06:00:00,15.08840332,0.0001836,53.2153,289.6817,50.2218,176.4485,-0.0012479,-0.00020094,0.0,0 STARLINK-4012,1 52602U 22052E   22244.25001157 -.00020094  00000-0 -12479-2 0  9993,2 52602  53.2153 289.6817 0001836  50.2218 176.4485 15.08840332 17167,6917.879,95.438,541.014,538.474,0.0
52602.0,STARLINK-4012,PAYLOAD,2022-09-01 14:00:01,15.08808018,0.0001986999999999,53.2152,288.1864,44.5719,193.7535,0.0030461999999999,0.00048484,0.0,0 STARLINK-4012,1 52602U 22052E   22244.58335648  .00048484  00000-0  30462-2 0  9997,2 52602  53.2152 288.1864 0001987  44.5719 193.7535 15.08808018  1303,6917.978,95.44,541.2180000000002,538.469,0.0
52602.0,STARLINK-4012,PAYLOAD,2022-09-01 22:00:00,15.08820969,0.0001815,53.2154,286.6882,49.0057,200.8412,0.0015323,0.0002417,0.0,0 STARLINK-4012,1 52602U 22052E   22244.91667824  .00024170  00000-0  15323-2 0  9993,2 52602  53.2154 286.6882 0001815  49.0057 200.8412 15.08820969  1306,6917.939,95.439,541.059,538.548,0.0
52602.0,STARLINK-4012,PAYLOAD,2022-09-02 14:00:01,15.08821607,0.0001998,53.2153,283.697,44.8786,228.148,0.0025064,0.00039807,0.0,0 STARLINK-4012,1 52602U 22052E   22245.58334491  .00039807  00000-0  25064-2 0  9994,2 52602  53.2153 283.6970 0001998  44.8786 228.1480 15.08821607  1302,6917.937,95.439,541.184,538.419,0.0
52602.0,STARLINK-4012,PAYLOAD,2022-09-02 22:00:01,15.08825284,0.0001819,53.2155,282.1987,50.0406,234.6476,0.001948,0.00030838,0.0,0 STARLINK-4012,1 52602U 22052E   22245.91668981  .00030838  00000-0  19480-2 0  9995,2 52602  53.2155 282.1987 0001819  50.0406 234.6476 15.08825284  1308,6917.925,95.438,541.049,538.5319999999998,0.0
52602.0,STARLINK-4012,PAYLOAD,2022-09-03 00:00:00,15.08820221,0.0001791,53.2154,281.8244,51.6166,325.9095,0.0030686,0.00048861,0.0,0 STARLINK-4012,1 52602U 22052E   22246.00001157  .00048861  00000-0  30686-2 0  9998,2 52602  53.2154 281.8244 0001791  51.6166 325.9095 15.08820221 17436,6917.941,95.439,541.045,538.567,0.0
52602.0,STARLINK-4012,PAYLOAD,2022-09-03 14:00:01,15.08840101,0.0001966,53.2151,279.2076,45.0426,262.7841,0.0013682,0.00021554,0.0,0 STARLINK-4012,1 52602U 22052E   22246.58334491  .00021554  00000-0  13682-2 0  9998,2 52602  53.2151 279.2076 0001966  45.0426 262.7841 15.08840101  1302,6917.88,95.438,541.105,538.385,0.0
52602.0,STARLINK-4012,PAYLOAD,2022-09-03 22:00:00,15.08825384,0.0001751999999999,53.2152,277.7095,50.0472,269.3982,0.00078991,0.00012301,0.0,0 STARLINK-4012,1 52602U 22052E   22246.91667824  .00012301  00000-0  78991-3 0  9999,2 52602  53.2152 277.7095 0001752  50.0472 269.3982 15.08825384  1302,6917.925,95.438,541.002,538.578,0.0
